start=new Date('2021-09-06T00:00:00.000Z').valueOf();
sats=[{"SITE":"AFETR","ELEMENT_SET_NO":"999","SEMIMAJOR_AXIS":"6925.367","REV_AT_EPOCH":"8837","OBJECT_NAME":"STARLINK-1156","CENTER_NAME":"EARTH","OBJECT_TYPE":"PAYLOAD","MEAN_MOTION_DDOT":"0.0000000000000","INCLINATION":"53.0555","BSTAR":"0.00007969100000","PERIAPSIS":"545.976","MEAN_ELEMENT_THEORY":"SGP4","RA_OF_ASC_NODE":"115.6067","MEAN_MOTION":"15.06394047","LAUNCH_DATE":"2020-01-29","REF_FRAME":"TEME","APOAPSIS":"548.487","COUNTRY_CODE":"US","ARG_OF_PERICENTER":"70.9996","FILE":"3109348","ECCENTRICITY":"0.00018130","CLASSIFICATION_TYPE":"U","MEAN_MOTION_DOT":"0.00000905","TIME_SYSTEM":"UTC","MEAN_ANOMALY":"289.1189","OBJECT_ID":"2020-006L","DECAY_DATE":null,"TLE_LINE2":"2 45054  53.0555 115.6067 0001813  70.9996 289.1189 15.06394047 88375","NORAD_CAT_ID":"45054","GP_ID":"184164302","TLE_LINE1":"1 45054U 20006L   21248.73217171  .00000905  00000-0  79691-4 0  9992","RCS_SIZE":"LARGE","EPOCH":"2021-09-05T17:34:19.635744","EPHEMERIS_TYPE":"0","PERIOD":"95.593"},{"ELEMENT_SET_NO":"999","SEMIMAJOR_AXIS":"6925.356","OBJECT_NAME":"STARLINK-1159","REV_AT_EPOCH":"8838","SITE":"AFETR","MEAN_MOTION_DDOT":"0.0000000000000","OBJECT_TYPE":"PAYLOAD","INCLINATION":"53.0534","CENTER_NAME":"EARTH","MEAN_ELEMENT_THEORY":"SGP4","BSTAR":"0.00009803600000","PERIAPSIS":"545.891","LAUNCH_DATE":"2020-01-29","REF_FRAME":"TEME","RA_OF_ASC_NODE":"115.5469","MEAN_MOTION":"15.06397702","FILE":"3109348","ARG_OF_PERICENTER":"83.8628","CLASSIFICATION_TYPE":"U","ECCENTRICITY":"0.00019200","APOAPSIS":"548.550","COUNTRY_CODE":"US","MEAN_ANOMALY":"276.2580","OBJECT_ID":"2020-006P","TIME_SYSTEM":"UTC","MEAN_MOTION_DOT":"0.00001179","TLE_LINE1":"1 45057U 20006P   21248.74691686  .00001179  00000-0  98036-4 0  9991","DECAY_DATE":null,"TLE_LINE2":"2 45057  53.0534 115.5469 0001920  83.8628 276.2580 15.06397702 88388","NORAD_CAT_ID":"45057","GP_ID":"184163554","EPHEMERIS_TYPE":"0","PERIOD":"95.592","EPOCH":"2021-09-05T17:55:33.616704","RCS_SIZE":"LARGE"},{"ELEMENT_SET_NO":"999","SEMIMAJOR_AXIS":"6925.351","REV_AT_EPOCH":"8837","OBJECT_NAME":"STARLINK-1162","SITE":"AFETR","OBJECT_TYPE":"PAYLOAD","MEAN_MOTION_DDOT":"0.0000000000000","INCLINATION":"53.0552","CENTER_NAME":"EARTH","MEAN_ELEMENT_THEORY":"SGP4","BSTAR":"0.00002516200000","PERIAPSIS":"546.052","LAUNCH_DATE":"2020-01-29","REF_FRAME":"TEME","RA_OF_ASC_NODE":"115.8832","MEAN_MOTION":"15.06399042","ARG_OF_PERICENTER":"75.6038","FILE":"3109348","ECCENTRICITY":"0.00016810","CLASSIFICATION_TYPE":"U","APOAPSIS":"548.381","COUNTRY_CODE":"US","MEAN_ANOMALY":"284.5137","OBJECT_ID":"2020-006Q","MEAN_MOTION_DOT":"0.00000093","TIME_SYSTEM":"UTC","TLE_LINE1":"1 45058U 20006Q   21248.67319604  .00000093  00000-0  25162-4 0  9995","DECAY_DATE":null,"GP_ID":"184163804","TLE_LINE2":"2 45058  53.0552 115.8832 0001681  75.6038 284.5137 15.06399042 88372","NORAD_CAT_ID":"45058","EPHEMERIS_TYPE":"0","PERIOD":"95.592","RCS_SIZE":"LARGE","EPOCH":"2021-09-05T16:09:24.137856"},{"SITE":"AFETR","REV_AT_EPOCH":"8836","OBJECT_NAME":"STARLINK-1165","SEMIMAJOR_AXIS":"6925.354","ELEMENT_SET_NO":"999","CENTER_NAME":"EARTH","INCLINATION":"53.0538","OBJECT_TYPE":"PAYLOAD","MEAN_MOTION_DDOT":"0.0000000000000","PERIAPSIS":"545.988","BSTAR":"-0.00004393800000","MEAN_ELEMENT_THEORY":"SGP4","RA_OF_ASC_NODE":"116.0746","MEAN_MOTION":"15.06398290","REF_FRAME":"TEME","LAUNCH_DATE":"2020-01-29","COUNTRY_CODE":"US","APOAPSIS":"548.449","ECCENTRICITY":"0.00017770","CLASSIFICATION_TYPE":"U","ARG_OF_PERICENTER":"71.6727","FILE":"3109348","MEAN_MOTION_DOT":"-0.00000936","TIME_SYSTEM":"UTC","OBJECT_ID":"2020-006R","MEAN_ANOMALY":"288.4455","NORAD_CAT_ID":"45059","TLE_LINE2":"2 45059  53.0538 116.0746 0001777  71.6727 288.4455 15.06398290 88360","GP_ID":"184164556","DECAY_DATE":null,"TLE_LINE1":"1 45059U 20006R   21248.62897253 -.00000936  00000-0 -43938-4 0  9991","RCS_SIZE":"LARGE","EPOCH":"2021-09-05T15:05:43.226592","PERIOD":"95.592","EPHEMERIS_TYPE":"0"},{"CLASSIFICATION_TYPE":"U","ECCENTRICITY":"0.00020730","FILE":"3109348","ARG_OF_PERICENTER":"76.3618","COUNTRY_CODE":"US","APOAPSIS":"548.651","OBJECT_ID":"2020-006S","MEAN_ANOMALY":"283.7602","TIME_SYSTEM":"UTC","MEAN_MOTION_DOT":"-0.00000358","TLE_LINE1":"1 45060U 20006S   21248.69163109 -.00000358  00000-0 -51507-5 0  9996","TLE_LINE2":"2 45060  53.0544 115.8036 0002073  76.3618 283.7602 15.06399394 88378","NORAD_CAT_ID":"45060","GP_ID":"184164803","DECAY_DATE":null,"PERIOD":"95.592","EPHEMERIS_TYPE":"0","EPOCH":"2021-09-05T16:35:56.926176","RCS_SIZE":"LARGE","OBJECT_NAME":"STARLINK-1166","REV_AT_EPOCH":"8837","ELEMENT_SET_NO":"999","SEMIMAJOR_AXIS":"6925.350","SITE":"AFETR","INCLINATION":"53.0544","MEAN_MOTION_DDOT":"0.0000000000000","OBJECT_TYPE":"PAYLOAD","CENTER_NAME":"EARTH","MEAN_ELEMENT_THEORY":"SGP4","PERIAPSIS":"545.780","BSTAR":"-0.00000515070000","REF_FRAME":"TEME","LAUNCH_DATE":"2020-01-29","RA_OF_ASC_NODE":"115.8036","MEAN_MOTION":"15.06399394"},{"DECAY_DATE":null,"TLE_LINE2":"2 45061  53.0548 116.0634 0002004  77.6480 282.4733 15.06396699 88360","NORAD_CAT_ID":"45061","GP_ID":"184163054","TLE_LINE1":"1 45061U 20006T   21248.63265254 -.00000026  00000-0  17145-4 0  9995","RCS_SIZE":"LARGE","EPOCH":"2021-09-05T15:11:01.179456","EPHEMERIS_TYPE":"0","PERIOD":"95.592","APOAPSIS":"548.612","COUNTRY_CODE":"US","ARG_OF_PERICENTER":"77.6480","FILE":"3109348","ECCENTRICITY":"0.00020040","CLASSIFICATION_TYPE":"U","MEAN_MOTION_DOT":"-0.00000026","TIME_SYSTEM":"UTC","MEAN_ANOMALY":"282.4733","OBJECT_ID":"2020-006T","BSTAR":"0.00001714500000","PERIAPSIS":"545.836","MEAN_ELEMENT_THEORY":"SGP4","MEAN_MOTION":"15.06396699","RA_OF_ASC_NODE":"116.0634","LAUNCH_DATE":"2020-01-29","REF_FRAME":"TEME","SITE":"AFETR","SEMIMAJOR_AXIS":"6925.359","ELEMENT_SET_NO":"999","REV_AT_EPOCH":"8836","OBJECT_NAME":"STARLINK-1169","CENTER_NAME":"EARTH","OBJECT_TYPE":"PAYLOAD","MEAN_MOTION_DDOT":"0.0000000000000","INCLINATION":"53.0548"},{"RA_OF_ASC_NODE":"115.5262","MEAN_MOTION":"15.06411735","REF_FRAME":"TEME","LAUNCH_DATE":"2020-01-29","PERIAPSIS":"545.816","BSTAR":"0.00010228000000","MEAN_ELEMENT_THEORY":"SGP4","CENTER_NAME":"EARTH","INCLINATION":"53.0540","MEAN_MOTION_DDOT":"0.0000000000000","OBJECT_TYPE":"PAYLOAD","SITE":"AFETR","OBJECT_NAME":"STARLINK-1171","REV_AT_EPOCH":"8838","SEMIMAJOR_AXIS":"6925.313","ELEMENT_SET_NO":"999","EPOCH":"2021-09-05T18:00:52.153632","RCS_SIZE":"LARGE","PERIOD":"95.591","EPHEMERIS_TYPE":"0","TLE_LINE2":"2 45062  53.0540 115.5262 0001966  82.9497 277.1715 15.06411735 88389","GP_ID":"184163304","NORAD_CAT_ID":"45062","DECAY_DATE":null,"TLE_LINE1":"1 45062U 20006U   21248.75060363  .00001243  00000-0  10228-3 0  9998","TIME_SYSTEM":"UTC","MEAN_MOTION_DOT":"0.00001243","OBJECT_ID":"2020-006U","MEAN_ANOMALY":"277.1715","COUNTRY_CODE":"US","APOAPSIS":"548.539","CLASSIFICATION_TYPE":"U","ECCENTRICITY":"0.00019660","FILE":"3109348","ARG_OF_PERICENTER":"82.9497"},{"PERIAPSIS":"404.379","BSTAR":"0.00426980000000","MEAN_ELEMENT_THEORY":"SGP4","RA_OF_ASC_NODE":"108.0432","MEAN_MOTION":"15.53861470","REF_FRAME":"TEME","LAUNCH_DATE":"2020-01-29","SITE":"AFETR","OBJECT_NAME":"STARLINK-1178","REV_AT_EPOCH":"8847","SEMIMAJOR_AXIS":"6783.601","ELEMENT_SET_NO":"999","CENTER_NAME":"EARTH","INCLINATION":"53.0562","MEAN_MOTION_DDOT":"0.0000000000000","OBJECT_TYPE":"PAYLOAD","TLE_LINE2":"2 45063  53.0562 108.0432 0001603  57.1758 302.9406 15.53861470 88473","NORAD_CAT_ID":"45063","GP_ID":"184164056","DECAY_DATE":null,"TLE_LINE1":"1 45063U 20006V   21248.59701084  .00289539  00000-0  42698-2 0  9994","EPOCH":"2021-09-05T14:19:41.736576","RCS_SIZE":"LARGE","PERIOD":"92.672","EPHEMERIS_TYPE":"0","COUNTRY_CODE":"US","APOAPSIS":"406.554","CLASSIFICATION_TYPE":"U","ECCENTRICITY":"0.00016030","FILE":"3109348","ARG_OF_PERICENTER":"57.1758","TIME_SYSTEM":"UTC","MEAN_MOTION_DOT":"0.00289539","OBJECT_ID":"2020-006V","MEAN_ANOMALY":"302.9406"},{"REF_FRAME":"TEME","LAUNCH_DATE":"2020-01-29","MEAN_MOTION":"15.06403312","RA_OF_ASC_NODE":"95.7684","MEAN_ELEMENT_THEORY":"SGP4","PERIAPSIS":"545.879","BSTAR":"0.00005395700000","INCLINATION":"53.0535","OBJECT_TYPE":"PAYLOAD","MEAN_MOTION_DDOT":"0.0000000000000","CENTER_NAME":"EARTH","REV_AT_EPOCH":"8865","OBJECT_NAME":"STARLINK-1133","SEMIMAJOR_AXIS":"6925.338","ELEMENT_SET_NO":"999","SITE":"AFETR","PERIOD":"95.592","EPHEMERIS_TYPE":"0","RCS_SIZE":"LARGE","EPOCH":"2021-09-05T16:43:54.382080","TLE_LINE1":"1 45064U 20006W   21248.69715720  .00000522  00000-0  53957-4 0  9993","GP_ID":"184164303","TLE_LINE2":"2 45064  53.0535  95.7684 0001912  84.4825 275.6381 15.06403312 88659","NORAD_CAT_ID":"45064","DECAY_DATE":null,"OBJECT_ID":"2020-006W","MEAN_ANOMALY":"275.6381","MEAN_MOTION_DOT":"0.00000522","TIME_SYSTEM":"UTC","ECCENTRICITY":"0.00019120","CLASSIFICATION_TYPE":"U","ARG_OF_PERICENTER":"84.4825","FILE":"3109348","COUNTRY_CODE":"US","APOAPSIS":"548.528"},{"CENTER_NAME":"EARTH","MEAN_MOTION_DDOT":"0.0000000000000","OBJECT_TYPE":"PAYLOAD","INCLINATION":"53.0550","SITE":"AFETR","ELEMENT_SET_NO":"999","SEMIMAJOR_AXIS":"6925.343","OBJECT_NAME":"STARLINK-1139","REV_AT_EPOCH":"8865","MEAN_MOTION":"15.06401678","RA_OF_ASC_NODE":"95.7603","LAUNCH_DATE":"2020-01-29","REF_FRAME":"TEME","BSTAR":"0.00009316600000","PERIAPSIS":"545.785","MEAN_ELEMENT_THEORY":"SGP4","TIME_SYSTEM":"UTC","MEAN_MOTION_DOT":"0.00001106","MEAN_ANOMALY":"280.9950","OBJECT_ID":"2020-006X","APOAPSIS":"548.632","COUNTRY_CODE":"US","FILE":"3109348","ARG_OF_PERICENTER":"79.1270","CLASSIFICATION_TYPE":"U","ECCENTRICITY":"0.00020550","EPOCH":"2021-09-05T16:49:12.316800","RCS_SIZE":"LARGE","EPHEMERIS_TYPE":"0","PERIOD":"95.592","DECAY_DATE":null,"GP_ID":"184163555","TLE_LINE2":"2 45065  53.0550  95.7603 0002055  79.1270 280.9950 15.06401678 88656","NORAD_CAT_ID":"45065","TLE_LINE1":"1 45065U 20006X   21248.70083700  .00001106  00000-0  93166-4 0  9997"}];
